OBJECT_NAME,OBJECT_ID,EPOCH,MEAN_MOTION,ECCENTRICITY,INCLINATION,RA_OF_ASC_NODE,ARG_OF_PERICENTER,MEAN_ANOMALY,EPHEMERIS_TYPE,CLASSIFICATION_TYPE,NORAD_CAT_ID,ELEMENT_SET_NO,REV_AT_EPOCH,BSTAR,MEAN_MOTION_DOT,MEAN_MOTION_DDOT
PERSEUS-M1,2014-033AF,2026-07-06T15:19:02.607168,14.95694147,.0010416,97.9645,132.0906,228.2327,131.8004,0,U,40039,999,65354,.13515E-3,.1444E-4,0
POLYITAN-1,2014-033AJ,2026-07-06T15:02:19.639680,15.33997518,.000846,98.0939,215.7354,88.5008,271.7202,0,U,40042,999,65657,.49123E-3,.16101E-3,0
TIGRISAT,2014-033AK,2026-07-06T15:41:29.374944,14.85232747,.0049365,97.7858,337.2223,12.4812,347.7613,0,U,40043,999,64851,.17913E-3,.1514E-4,0
AEROCUBE 6A,2014-033AM,2026-07-06T17:25:39.673632,14.98288236,.0037299,97.7237,354.4701,310.0222,49.7729,0,U,40045,999,64954,.35158E-3,.4181E-4,0
AEROCUBE 6B,2014-033AN,2026-07-06T10:37:18.596640,14.99746993,.0037815,97.7218,354.0216,301.1990,58.5528,0,U,40046,999,64964,.34147E-3,.422E-4,0
CANX-4,2014-034C,2026-07-06T14:32:57.695712,14.81300885,.0011764,98.3097,63.6301,313.3306,46.6924,0,U,40055,999,64740,.12484E-3,.917E-5,0
CANX-5,2014-034D,2026-07-06T14:30:22.745088,14.81318219,.0011761,98.3099,63.6729,313.5440,46.4793,0,U,40056,999,63821,.12491E-3,.918E-5,0
UKUBE-1,2014-037F,2026-07-06T12:53:00.587040,15.13862909,.000336,98.4246,192.8457,103.1099,257.0505,0,U,40074,999,65148,.34748E-3,.6207E-4,0
BRITE-PL2 (HEWELIUSZ),2014-049B,2026-07-06T20:31:05.653056,14.94667012,.0014891,97.9109,300.0087,49.1461,311.1047,0,U,40119,999,64438,.19243E-3,.2031E-4,0
AEROCUBE 5C,2015-058B,2026-07-06T09:56:52.767168,14.91539513,.013176,64.7654,202.7708,55.7914,305.5602,0,U,40965,999,36852,.23385E-3,.2597E-4,0
AEROCUBE 7,2015-058C,2026-07-06T16:33:34.100064,14.95859784,.0121451,64.7609,183.7222,54.0290,307.2015,0,U,40966,999,36887,.30749E-3,.3817E-4,0
FOX-1A (AO-85),2015-058D,2026-07-06T11:14:23.368992,14.91055175,.0131693,64.7734,219.0599,49.1227,312.1206,0,U,40967,999,11644,.22162E-3,.2418E-4,0
SINOD-D 1,2015-058E,2026-07-06T17:34:43.642848,14.96035665,.0120368,64.7736,197.6982,45.4075,315.6784,0,U,40968,999,11958,.28938E-3,.3589E-4,0
SNAP-3 ALICE,2015-058G,2026-07-06T16:39:54.527040,15.65388300,.002347,64.7492,36.2523,355.3013,4.7911,0,U,40970,999,11993,.11909E-2,.122778E-2,0
LMRST-SAT,2015-058H,2026-07-06T10:17:09.000960,14.90671047,.0133244,64.7739,215.5578,51.1485,310.1428,0,U,40971,999,11642,.22074E-3,.2391E-4,0
SNAP-3 EDDIE,2015-058J,2026-07-06T20:39:13.682592,15.66724765,.0024335,64.7405,26.2504,357.8955,2.2087,0,U,40972,999,12210,.11593E-2,.126327E-2,0
PROPCUBE 3,2015-058K,2026-07-06T08:23:48.690240,14.94368741,.01251239,64.7669,192.6590,52.4066,308.8329,0,U,40973,999,11766,.31929743E-3,.3845E-4,0
BISONSAT,2015-058L,2026-07-06T21:12:14.800896,15.16767190,.0081238,64.7579,109.9379,39.3879,321.3114,0,U,40974,999,11860,.59197E-3,.12519E-3,0
SNAP-3 JIMI,2015-058M,2026-07-06T08:38:10.827456,15.02523493,.0107215,64.7640,159.1012,47.7487,313.2663,0,U,40975,999,11710,.51669655E-3,.7626E-4,0
PROPCUBE 1 (FLORA),2015-058N,2026-07-06T11:14:22.516224,14.89301803,.0131863,64.7732,235.4755,53.4237,307.8923,0,U,40976,999,11913,.19344E-3,.1987E-4,0
SINOD-D 3,2015-058P,2026-07-06T09:13:49.807200,14.94130258,.01203993,64.7708,215.8665,50.5430,310.6262,0,U,40977,999,11762,.30148164E-3,.3553E-4,0
RAVAN,2016-067B,2026-07-06T15:54:07.595424,15.56768949,.0001483,97.9849,79.5105,280.9729,79.1358,0,U,41849,999,53072,.6519E-3,.46734E-3,0
CELTEE 1,2016-067C,2026-07-06T13:32:30.830208,15.19883845,.0002029,98.0649,55.4525,120.7122,239.4312,0,U,41850,999,52882,.22559E-3,.4765E-4,0
OPTICUBE 04,2016-067D,2026-07-06T13:34:08.947776,15.09746613,.0016763,98.0683,40.8590,55.4583,304.8224,0,U,41851,999,52809,.12097E-3,.1886E-4,0
AEROCUBE 8D,2016-067E,2026-07-06T14:00:28.691424,15.24686709,.000493,98.0655,59.2307,77.9453,282.2334,0,U,41852,999,52902,.27194E-3,.6643E-4,0
AEROCUBE 8C,2016-067F,2026-07-06T14:31:50.985408,15.24940431,.000514,98.0529,56.4572,12.5275,347.6087,0,U,41853,999,52902,.25999E-3,.6396E-4,0
CORVUS BC2,2017-042X,2026-07-06T17:23:15.288000,15.06424954,.0013941,97.4090,348.3176,49.7156,310.5288,0,U,42846,999,49000,.24007E-3,.3487E-4,0
CORVUS BC1,2017-042Y,2026-07-06T09:14:10.756608,15.06590495,.00124497,97.4126,348.8177,29.8378,330.3557,0,U,42847,999,48998,.25088186E-3,.3661E-4,0
MAKERSAT 0,2017-073D,2026-07-06T15:20:19.727808,15.32782580,.0104976,97.4596,70.3150,202.8118,156.8443,0,U,43016,999,46944,.44083E-3,.16571E-3,0
SIRION PATHFINDER-2,2018-099B,2026-07-06T16:05:59.889984,15.14731584,.000765,97.4242,236.2659,223.3987,136.6643,0,U,43759,999,41557,.25427E-3,.465E-4,0
